1 90000           19337.16666667 -.00000198  00000-0 -36226-3 0 00001
2 90000 053.8711 331.1223 0008069 268.9599 076.9464 13.39845954000010
1 90001           19337.16666667 -.00000174  00000-0 -31921-3 0 00003
2 90001 053.8711 331.1223 0008068 268.9619 084.1443 13.39845939000014
1 90002           19337.16666667 -.00000141  00000-0 -25776-3 0 00009
2 90002 053.8711 331.1223 0008068 268.9615 091.3448 13.39845913000018
1 90003           19337.16666667 -.00000100  00000-0 -18312-3 0 00003
2 90003 053.8711 331.1223 0008067 268.9590 098.5472 13.39845877000015
1 90004           19337.16666667 -.00000055  00000-0 -10009-3 0 00008
2 90004 053.8711 331.1223 0008067 268.9554 105.7509 13.39845833000010
1 90005           19337.16666667 -.00000009  00000-0 -15888-4 0 00009
2 90005 053.8711 331.1223 0008067 268.9513 112.9551 13.39845786000010
1 90006           19337.16666667  .00000035  00000-0  64794-4 0 00007
2 90006 053.8711 331.1223 0008067 268.9478 120.1586 13.39845739000018
1 90007           19337.16666667  .00000074  00000-0  13617-3 0 00008
2 90007 053.8711 331.1223 0008068 268.9458 127.3606 13.39845694000010
1 90008           19337.16666667  .00000105  00000-0  19298-3 0 00005
2 90008 053.8711 331.1222 0008069 268.9460 134.5605 13.39845656000011
1 90009           19337.16666667  .00000126  00000-0  23098-3 0 00002
2 90009 053.8711 331.1222 0008069 268.9487 141.7578 13.39845626000017
1 90010           19337.16666667  .00000135  00000-0  24726-3 0 00003
2 90010 053.8711 331.1222 0008070 268.9538 148.9527 13.39845607000010
1 90011           19337.16666667  .00000131  00000-0  24033-3 0 00001
2 90011 053.8711 331.1222 0008070 268.9609 156.1456 13.39845601000016
1 90012           19337.16666667  .00000115  00000-0  21019-3 0 00005
2 90012 053.8711 331.1222 0008070 268.9692 163.3373 13.39845609000015
1 90013           19337.16666667  .00000086  00000-0  15835-3 0 00002
2 90013 053.8711 331.1222 0008070 268.9777 170.5288 13.39845631000010
1 90014           19337.16666667  .00000048  00000-0  87788-4 0 00008
2 90014 053.8711 331.1222 0008069 268.9852 177.7213 13.39845665000017
1 90015           19337.16666667  .00000001  00000-0  27155-5 0 00001
2 90015 053.8711 331.1222 0008068 268.9906 184.9159 13.39845711000018
1 90016           19337.16666667 -.00000050  00000-0 -91710-4 0 00005
2 90016 053.8711 331.1222 0008066 268.9932 192.1133 13.39845767000010
1 90017           19337.16666667 -.00000103  00000-0 -18969-3 0 00009
2 90017 053.8711 331.1222 0008065 268.9924 199.3140 13.39845827000015
1 90018           19337.16666667 -.00000156  00000-0 -28509-3 0 00009
2 90018 053.8711 331.1222 0008064 268.9884 206.5179 13.39845891000014
1 90019           19337.16666667 -.00000203  00000-0 -37182-3 0 00000
2 90019 053.8711 331.1222 0008062 268.9816 213.7247 13.39845952000012
1 90020           19337.16666667 -.00000242  00000-0 -44431-3 0 00000
2 90020 053.8712 331.1222 0008062 268.9727 220.9336 13.39846009000019
1 90021           19337.16666667 -.00000272  00000-0 -49787-3 0 00003
2 90021 053.8712 331.1223 0008061 268.9627 228.1434 13.39846058000012
1 90022           19337.16666667 -.00000288  00000-0 -52889-3 0 00008
2 90022 053.8711 331.1223 0008061 268.9529 235.3532 13.39846096000014
1 90023           19337.16666667 -.00000292  00000-0 -53493-3 0 00006
2 90023 053.8711 331.1223 0008062 268.9444 242.5616 13.39846120000013
1 90024           19337.16666667 -.00000281  00000-0 -51494-3 0 00004
2 90024 053.8711 331.1223 0008063 268.9383 249.7677 13.39846130000014
1 90025           19337.16666667 -.00000256  00000-0 -46966-3 0 00005
2 90025 053.8711 331.1223 0008064 268.9352 256.9708 13.39846124000010
1 90026           19337.16666667 -.00000220  00000-0 -40385-3 0 00006
2 90026 053.8711 331.1223 0008065 268.9349 264.1710 13.39846104000010
1 90027           19337.16666667 -.00000173  00000-0 -31798-3 0 00002
2 90027 053.8711 331.1223 0008066 268.9381 271.3679 13.39846070000014
1 90028           19337.16666667 -.00000118  00000-0 -21589-3 0 00009
2 90028 053.8711 331.1223 0008067 268.9439 278.5621 13.39846022000013
1 90029           19337.16666667 -.00000059  00000-0 -10838-3 0 00009
2 90029 053.8711 331.1223 0008067 268.9511 285.7550 13.39845968000014
1 90030           19337.16666667 -.00000000  00000-0  00000-0 0 00003
2 90030 053.8711 331.1223 0008067 268.9587 292.9474 13.39845907000017
1 90031           19337.16666667  .00000059  00000-0  10755-3 0 00008
2 90031 053.8711 331.1223 0008067 268.9657 300.1405 13.39845843000011
1 90032           19337.16666667  .00000111  00000-0  20388-3 0 00001
2 90032 053.8711 331.1223 0008066 268.9707 307.3355 13.39845781000011
1 90033           19337.16666667  .00000155  00000-0  28472-3 0 00002
2 90033 053.8711 331.1222 0008065 268.9730 314.5333 13.39845722000017
1 90034           19337.16666667  .00000188  00000-0  34547-3 0 00009
2 90034 053.8711 331.1222 0008064 268.9722 321.7342 13.39845672000012
1 90035           19337.16666667  .00000209  00000-0  38290-3 0 00003
2 90035 053.8711 331.1222 0008063 268.9681 328.9384 13.39845632000017
1 90036           19337.16666667  .00000216  00000-0  39518-3 0 00006
2 90036 053.8711 331.1222 0008062 268.9611 336.1454 13.39845604000018
1 90037           19337.16666667  .00000208  00000-0  38194-3 0 00007
2 90037 053.8711 331.1222 0008061 268.9520 343.3545 13.39845590000012
1 90038           19337.16666667  .00000188  00000-0  34428-3 0 00001
2 90038 053.8711 331.1222 0008061 268.9419 350.5646 13.39845590000012
1 90039           19337.16666667  .00000155  00000-0  28482-3 0 00009
2 90039 053.8711 331.1222 0008062 268.9320 357.7745 13.39845604000010
1 90040           19337.16666667  .00000113  00000-0  20751-3 0 00006
2 90040 053.8711 331.1222 0008063 268.9236 004.9829 13.39845630000012
1 90041           19337.16666667  .00000064  00000-0  11742-3 0 00002
2 90041 053.8711 331.1222 0008064 268.9177 012.1888 13.39845666000013
1 90042           19337.16666667  .00000011  00000-0  20357-4 0 00008
2 90042 053.8711 331.1222 0008065 268.9148 019.3917 13.39845710000015
1 90043           19337.16666667 -.00000042  00000-0 -77486-4 0 00000
2 90043 053.8711 331.1222 0008067 268.9152 026.5912 13.39845759000011
1 90044           19337.16666667 -.00000093  00000-0 -16995-3 0 00004
2 90044 053.8711 331.1222 0008068 268.9188 033.7877 13.39845808000017
1 90045           19337.16666667 -.00000137  00000-0 -25133-3 0 00008
2 90045 053.8712 331.1222 0008069 268.9248 040.9816 13.39845854000011
1 90046           19337.16666667 -.00000173  00000-0 -31678-3 0 00000
2 90046 053.8712 331.1223 0008070 268.9326 048.1738 13.39845895000010
1 90047           19337.16666667 -.00000198  00000-0 -36248-3 0 00006
2 90047 053.8711 331.1223 0008070 268.9410 055.3653 13.39845927000016
1 90048           19337.16666667 -.00000210  00000-0 -38584-3 0 00007
2 90048 053.8711 331.1223 0008070 268.9489 062.5574 13.39845948000018
1 90049           19337.16666667 -.00000210  00000-0 -38562-3 0 00004
2 90049 053.8711 331.1223 0008070 268.9554 069.7508 13.39845957000018
